STARLINK-36277          
1 68305U 26057M   26089.58336806 -.01347688  56280-3 -28369-2 0  9999
2 68305  97.2778 212.8675 0001312  74.5367 173.7275 15.98956109  2720
STARLINK-36307          
1 68306U 26057N   26089.58336806 -.01287342  51631-3 -27287-2 0  9993
2 68306  97.2784 212.8663 0001369  66.5445 177.8155 15.98823064  2674
STARLINK-36264          
1 68307U 26057P   26089.58336806 -.01414564  61649-3 -29576-2 0  9995
2 68307  97.2780 212.8695 0001349  65.3965 187.0500 15.99087024  2720
STARLINK-37138          
1 68308U 26057Q   26089.58336806 -.01419472  62112-3 -29520-2 0  9994
2 68308  97.2775 212.8698 0001413  64.6171 190.3204 15.99183531  2404
STARLINK-37149          
1 68309U 26057R   26089.58336806 -.01429274  62974-3 -29571-2 0  9998
2 68309  97.2771 212.8709 0001409  66.1034 192.0208 15.99277133  2511
STARLINK-37148          
1 68310U 26057S   26089.58336806 -.01435787  63641-3 -29393-2 0  9990
2 68310  97.2770 212.8740 0001397  64.7175 200.0436 15.99466750  2623
STARLINK-37140          
1 68311U 26057T   26089.58336806 -.01430392  63131-3 -29438-2 0  9992
2 68311  97.2771 212.8730 0001323  75.3774 186.2555 15.99371727  2778
STARLINK-36854          
1 68312U 26057U   26089.58336806 -.01432981  63475-3 -29184-2 0  9998
2 68312  97.2770 212.8759 0001472  66.4509 201.3425 15.99558348  2570
STARLINK-36815          
1 68313U 26057V   26089.58336806 -.01437052  63881-3 -29104-2 0  9996
2 68313  97.2769 212.8776 0001262  83.0940 188.3238 15.99658989  2577
STARLINK-37155          
1 68314U 26057W   26089.58336806 -.01446952  64841-3 -28984-2 0  9998
2 68314  97.2764 212.8808 0001318  72.0669 206.9248 15.99855557  2621
STARLINK-37150          
1 68315U 26057X   26089.58336806 -.01446350  64721-3 -29130-2 0  9992
2 68315  97.2766 212.8792 0001354  72.1968 203.2752 15.99758750  2626
STARLINK-37154          
1 68316U 26057Y   26089.58336806 -.01443000  64662-3 -28571-2 0  9994
2 68316  97.2758 212.8840 0001289  75.0570 211.6112 16.00061094  2523
