CCSDS_OMM_VERS = 2.0
CREATION_DATE  = 
ORIGINATOR     = 

OBJECT_NAME    = STARLINK-36277
OBJECT_ID      = 2026-057M
CENTER_NAME    = EARTH
REF_FRAME      = TEME
TIME_SYSTEM    = UTC
MEAN_ELEMENT_THEORY = SGP/SGP4

EPOCH          = 2026-03-30T14:00:03.000384
MEAN_MOTION    = 15.98956109
ECCENTRICITY   = .00013124
INCLINATION    = 97.2778
RA_OF_ASC_NODE = 212.8675
ARG_OF_PERICENTER = 74.5367
MEAN_ANOMALY   = 173.7275

EPHEMERIS_TYPE = 0
CLASSIFICATION_TYPE = U
NORAD_CAT_ID   = 68305
ELEMENT_SET_NO = 999
REV_AT_EPOCH   = 272
BSTAR          = -.2836946E-2
MEAN_MOTION_DOT = -.1347688E-1
MEAN_MOTION_DDOT = .56280178E-3

CCSDS_OMM_VERS = 2.0
CREATION_DATE  = 
ORIGINATOR     = 

OBJECT_NAME    = STARLINK-36307
OBJECT_ID      = 2026-057N
CENTER_NAME    = EARTH
REF_FRAME      = TEME
TIME_SYSTEM    = UTC
MEAN_ELEMENT_THEORY = SGP/SGP4

EPOCH          = 2026-03-30T14:00:03.000384
MEAN_MOTION    = 15.98823064
ECCENTRICITY   = .00013696
INCLINATION    = 97.2784
RA_OF_ASC_NODE = 212.8663
ARG_OF_PERICENTER = 66.5445
MEAN_ANOMALY   = 177.8155

EPHEMERIS_TYPE = 0
CLASSIFICATION_TYPE = U
NORAD_CAT_ID   = 68306
ELEMENT_SET_NO = 999
REV_AT_EPOCH   = 267
BSTAR          = -.27287292E-2
MEAN_MOTION_DOT = -.1287342E-1
MEAN_MOTION_DDOT = .51631339E-3

CCSDS_OMM_VERS = 2.0
CREATION_DATE  = 
ORIGINATOR     = 

OBJECT_NAME    = STARLINK-36264
OBJECT_ID      = 2026-057P
CENTER_NAME    = EARTH
REF_FRAME      = TEME
TIME_SYSTEM    = UTC
MEAN_ELEMENT_THEORY = SGP/SGP4

EPOCH          = 2026-03-30T14:00:03.000384
MEAN_MOTION    = 15.99087024
ECCENTRICITY   = .00013499
INCLINATION    = 97.2780
RA_OF_ASC_NODE = 212.8695
ARG_OF_PERICENTER = 65.3965
MEAN_ANOMALY   = 187.0500

EPHEMERIS_TYPE = 0
CLASSIFICATION_TYPE = U
NORAD_CAT_ID   = 68307
ELEMENT_SET_NO = 999
REV_AT_EPOCH   = 272
BSTAR          = -.29576093E-2
MEAN_MOTION_DOT = -.1414564E-1
MEAN_MOTION_DDOT = .61648826E-3

CCSDS_OMM_VERS = 2.0
CREATION_DATE  = 
ORIGINATOR     = 

OBJECT_NAME    = STARLINK-37138
OBJECT_ID      = 2026-057Q
CENTER_NAME    = EARTH
REF_FRAME      = TEME
TIME_SYSTEM    = UTC
MEAN_ELEMENT_THEORY = SGP/SGP4

EPOCH          = 2026-03-30T14:00:03.000384
MEAN_MOTION    = 15.99183531
ECCENTRICITY   = .00014134
INCLINATION    = 97.2775
RA_OF_ASC_NODE = 212.8698
ARG_OF_PERICENTER = 64.6171
MEAN_ANOMALY   = 190.3204

EPHEMERIS_TYPE = 0
CLASSIFICATION_TYPE = U
NORAD_CAT_ID   = 68308
ELEMENT_SET_NO = 999
REV_AT_EPOCH   = 240
BSTAR          = -.29519957E-2
MEAN_MOTION_DOT = -.1419472E-1
MEAN_MOTION_DDOT = .62111869E-3

CCSDS_OMM_VERS = 2.0
CREATION_DATE  = 
ORIGINATOR     = 

OBJECT_NAME    = STARLINK-37149
OBJECT_ID      = 2026-057R
CENTER_NAME    = EARTH
REF_FRAME      = TEME
TIME_SYSTEM    = UTC
MEAN_ELEMENT_THEORY = SGP/SGP4

EPOCH          = 2026-03-30T14:00:03.000384
MEAN_MOTION    = 15.99277133
ECCENTRICITY   = .00014093
INCLINATION    = 97.2771
RA_OF_ASC_NODE = 212.8709
ARG_OF_PERICENTER = 66.1034
MEAN_ANOMALY   = 192.0208

EPHEMERIS_TYPE = 0
CLASSIFICATION_TYPE = U
NORAD_CAT_ID   = 68309
ELEMENT_SET_NO = 999
REV_AT_EPOCH   = 251
BSTAR          = -.2957088E-2
MEAN_MOTION_DOT = -.1429274E-1
MEAN_MOTION_DDOT = .62974009E-3

CCSDS_OMM_VERS = 2.0
CREATION_DATE  = 
ORIGINATOR     = 

OBJECT_NAME    = STARLINK-37148
OBJECT_ID      = 2026-057S
CENTER_NAME    = EARTH
REF_FRAME      = TEME
TIME_SYSTEM    = UTC
MEAN_ELEMENT_THEORY = SGP/SGP4

EPOCH          = 2026-03-30T14:00:03.000384
MEAN_MOTION    = 15.99466750
ECCENTRICITY   = .00013972
INCLINATION    = 97.2770
RA_OF_ASC_NODE = 212.8740
ARG_OF_PERICENTER = 64.7175
MEAN_ANOMALY   = 200.0436

EPHEMERIS_TYPE = 0
CLASSIFICATION_TYPE = U
NORAD_CAT_ID   = 68310
ELEMENT_SET_NO = 999
REV_AT_EPOCH   = 262
BSTAR          = -.29393191E-2
MEAN_MOTION_DOT = -.1435787E-1
MEAN_MOTION_DDOT = .63640613E-3

CCSDS_OMM_VERS = 2.0
CREATION_DATE  = 
ORIGINATOR     = 

OBJECT_NAME    = STARLINK-37140
OBJECT_ID      = 2026-057T
CENTER_NAME    = EARTH
REF_FRAME      = TEME
TIME_SYSTEM    = UTC
MEAN_ELEMENT_THEORY = SGP/SGP4

EPOCH          = 2026-03-30T14:00:03.000384
MEAN_MOTION    = 15.99371727
ECCENTRICITY   = .00013231
INCLINATION    = 97.2771
RA_OF_ASC_NODE = 212.8730
ARG_OF_PERICENTER = 75.3774
MEAN_ANOMALY   = 186.2555

EPHEMERIS_TYPE = 0
CLASSIFICATION_TYPE = U
NORAD_CAT_ID   = 68311
ELEMENT_SET_NO = 999
REV_AT_EPOCH   = 277
BSTAR          = -.29438288E-2
MEAN_MOTION_DOT = -.1430392E-1
MEAN_MOTION_DDOT = .63131248E-3

CCSDS_OMM_VERS = 2.0
CREATION_DATE  = 
ORIGINATOR     = 

OBJECT_NAME    = STARLINK-36854
OBJECT_ID      = 2026-057U
CENTER_NAME    = EARTH
REF_FRAME      = TEME
TIME_SYSTEM    = UTC
MEAN_ELEMENT_THEORY = SGP/SGP4

EPOCH          = 2026-03-30T14:00:03.000384
MEAN_MOTION    = 15.99558348
ECCENTRICITY   = .00014723
INCLINATION    = 97.2770
RA_OF_ASC_NODE = 212.8759
ARG_OF_PERICENTER = 66.4509
MEAN_ANOMALY   = 201.3425

EPHEMERIS_TYPE = 0
CLASSIFICATION_TYPE = U
NORAD_CAT_ID   = 68312
ELEMENT_SET_NO = 999
REV_AT_EPOCH   = 257
BSTAR          = -.29184265E-2
MEAN_MOTION_DOT = -.1432981E-1
MEAN_MOTION_DDOT = .63474901E-3

CCSDS_OMM_VERS = 2.0
CREATION_DATE  = 
ORIGINATOR     = 

OBJECT_NAME    = STARLINK-36815
OBJECT_ID      = 2026-057V
CENTER_NAME    = EARTH
REF_FRAME      = TEME
TIME_SYSTEM    = UTC
MEAN_ELEMENT_THEORY = SGP/SGP4

EPOCH          = 2026-03-30T14:00:03.000384
MEAN_MOTION    = 15.99658989
ECCENTRICITY   = .00012626
INCLINATION    = 97.2769
RA_OF_ASC_NODE = 212.8776
ARG_OF_PERICENTER = 83.0940
MEAN_ANOMALY   = 188.3238

EPHEMERIS_TYPE = 0
CLASSIFICATION_TYPE = U
NORAD_CAT_ID   = 68313
ELEMENT_SET_NO = 999
REV_AT_EPOCH   = 257
BSTAR          = -.29104005E-2
MEAN_MOTION_DOT = -.1437052E-1
MEAN_MOTION_DDOT = .63880707E-3

CCSDS_OMM_VERS = 2.0
CREATION_DATE  = 
ORIGINATOR     = 

OBJECT_NAME    = STARLINK-37155
OBJECT_ID      = 2026-057W
CENTER_NAME    = EARTH
REF_FRAME      = TEME
TIME_SYSTEM    = UTC
MEAN_ELEMENT_THEORY = SGP/SGP4

EPOCH          = 2026-03-30T14:00:03.000384
MEAN_MOTION    = 15.99855557
ECCENTRICITY   = .00013183
INCLINATION    = 97.2764
RA_OF_ASC_NODE = 212.8808
ARG_OF_PERICENTER = 72.0669
MEAN_ANOMALY   = 206.9248

EPHEMERIS_TYPE = 0
CLASSIFICATION_TYPE = U
NORAD_CAT_ID   = 68314
ELEMENT_SET_NO = 999
REV_AT_EPOCH   = 262
BSTAR          = -.28983933E-2
MEAN_MOTION_DOT = -.1446952E-1
MEAN_MOTION_DDOT = .64841324E-3

CCSDS_OMM_VERS = 2.0
CREATION_DATE  = 
ORIGINATOR     = 

OBJECT_NAME    = STARLINK-37150
OBJECT_ID      = 2026-057X
CENTER_NAME    = EARTH
REF_FRAME      = TEME
TIME_SYSTEM    = UTC
MEAN_ELEMENT_THEORY = SGP/SGP4

EPOCH          = 2026-03-30T14:00:03.000384
MEAN_MOTION    = 15.99758750
ECCENTRICITY   = .00013543
INCLINATION    = 97.2766
RA_OF_ASC_NODE = 212.8792
ARG_OF_PERICENTER = 72.1968
MEAN_ANOMALY   = 203.2752

EPHEMERIS_TYPE = 0
CLASSIFICATION_TYPE = U
NORAD_CAT_ID   = 68315
ELEMENT_SET_NO = 999
REV_AT_EPOCH   = 262
BSTAR          = -.2913005E-2
MEAN_MOTION_DOT = -.144635E-1
MEAN_MOTION_DDOT = .64721263E-3

CCSDS_OMM_VERS = 2.0
CREATION_DATE  = 
ORIGINATOR     = 

OBJECT_NAME    = STARLINK-37154
OBJECT_ID      = 2026-057Y
CENTER_NAME    = EARTH
REF_FRAME      = TEME
TIME_SYSTEM    = UTC
MEAN_ELEMENT_THEORY = SGP/SGP4

EPOCH          = 2026-03-30T14:00:03.000384
MEAN_MOTION    = 16.00061094
ECCENTRICITY   = .00012898
INCLINATION    = 97.2758
RA_OF_ASC_NODE = 212.8840
ARG_OF_PERICENTER = 75.0570
MEAN_ANOMALY   = 211.6112

EPHEMERIS_TYPE = 0
CLASSIFICATION_TYPE = U
NORAD_CAT_ID   = 68316
ELEMENT_SET_NO = 999
REV_AT_EPOCH   = 252
BSTAR          = -.28570537E-2
MEAN_MOTION_DOT = -.1443E-1
MEAN_MOTION_DDOT = .64662006E-3

